[
    {
        "OBJECT_NAME": "ARIANE 5 R/B",
        "OBJECT_ID": "2004-049H",
        "EPOCH": "2026-04-25T17:19:43.322016",
        "MEAN_MOTION": 14.85353024,
        "ECCENTRICITY": 0.0083678,
        "INCLINATION": 98.2689,
        "RA_OF_ASC_NODE": 285.9609,
        "ARG_OF_PERICENTER": 197.8241,
        "MEAN_ANOMALY": 162.0034,
        "EPHEMERIS_TYPE": 0,
        "CLASSIFICATION_TYPE": "U",
        "NORAD_CAT_ID": 28499,
        "ELEMENT_SET_NO": 999,
        "REV_AT_EPOCH": 15277,
        "BSTAR": 0.00010676,
        "MEAN_MOTION_DOT": 9.12e-06,
        "MEAN_MOTION_DDOT": 0
    },
    {
        "OBJECT_NAME": "CZ-2D R/B",
        "OBJECT_ID": "2005-024B",
        "EPOCH": "2026-04-25T14:14:35.899584",
        "MEAN_MOTION": 15.643385,
        "ECCENTRICITY": 0.000473,
        "INCLINATION": 97.3546,
        "RA_OF_ASC_NODE": 132.6048,
        "ARG_OF_PERICENTER": 170.8226,
        "MEAN_ANOMALY": 189.312,
        "EPHEMERIS_TYPE": 0,
        "CLASSIFICATION_TYPE": "U",
        "NORAD_CAT_ID": 28738,
        "ELEMENT_SET_NO": 999,
        "REV_AT_EPOCH": 14710,
        "BSTAR": 0.00046585,
        "MEAN_MOTION_DOT": 0.00044567,
        "MEAN_MOTION_DDOT": 0
    },
    {
        "OBJECT_NAME": "ALOS (DAICHI)",
        "OBJECT_ID": "2006-002A",
        "EPOCH": "2026-04-25T19:32:14.205120",
        "MEAN_MOTION": 14.69937987,
        "ECCENTRICITY": 0.0001924,
        "INCLINATION": 98.1286,
        "RA_OF_ASC_NODE": 71.5615,
        "ARG_OF_PERICENTER": 104.1829,
        "MEAN_ANOMALY": 255.959,
        "EPHEMERIS_TYPE": 0,
        "CLASSIFICATION_TYPE": "U",
        "NORAD_CAT_ID": 28931,
        "ELEMENT_SET_NO": 999,
        "REV_AT_EPOCH": 8040,
        "BSTAR": 0.00017104,
        "MEAN_MOTION_DOT": 9.75e-06,
        "MEAN_MOTION_DDOT": 0
    },
    {
        "OBJECT_NAME": "H-2A R/B",
        "OBJECT_ID": "2006-002B",
        "EPOCH": "2026-04-25T09:03:25.301952",
        "MEAN_MOTION": 15.17374458,
        "ECCENTRICITY": 0.0052443,
        "INCLINATION": 98.2498,
        "RA_OF_ASC_NODE": 266.4786,
        "ARG_OF_PERICENTER": 83.198,
        "MEAN_ANOMALY": 277.5214,
        "EPHEMERIS_TYPE": 0,
        "CLASSIFICATION_TYPE": "U",
        "NORAD_CAT_ID": 28932,
        "ELEMENT_SET_NO": 999,
        "REV_AT_EPOCH": 10151,
        "BSTAR": 0.00045024,
        "MEAN_MOTION_DOT": 9.241e-05,
        "MEAN_MOTION_DDOT": 0
    },
    {
        "OBJECT_NAME": "RESURS-DK 1",
        "OBJECT_ID": "2006-021A",
        "EPOCH": "2026-04-25T17:50:49.930080",
        "MEAN_MOTION": 15.12985142,
        "ECCENTRICITY": 0.0003266,
        "INCLINATION": 69.9299,
        "RA_OF_ASC_NODE": 115.2839,
        "ARG_OF_PERICENTER": 341.1886,
        "MEAN_ANOMALY": 18.9158,
        "EPHEMERIS_TYPE": 0,
        "CLASSIFICATION_TYPE": "U",
        "NORAD_CAT_ID": 29228,
        "ELEMENT_SET_NO": 999,
        "REV_AT_EPOCH": 9464,
        "BSTAR": 0.00012463,
        "MEAN_MOTION_DOT": 2.097e-05,
        "MEAN_MOTION_DDOT": 0
    },
    {
        "OBJECT_NAME": "CZ-4B R/B",
        "OBJECT_ID": "2006-046C",
        "EPOCH": "2026-04-25T16:50:03.310080",
        "MEAN_MOTION": 15.17347593,
        "ECCENTRICITY": 0.0034621,
        "INCLINATION": 97.5508,
        "RA_OF_ASC_NODE": 160.4747,
        "ARG_OF_PERICENTER": 104.2275,
        "MEAN_ANOMALY": 256.2807,
        "EPHEMERIS_TYPE": 0,
        "CLASSIFICATION_TYPE": "U",
        "NORAD_CAT_ID": 29507,
        "ELEMENT_SET_NO": 999,
        "REV_AT_EPOCH": 6717,
        "BSTAR": 0.00021202,
        "MEAN_MOTION_DOT": 4.226e-05,
        "MEAN_MOTION_DDOT": 0
    },
    {
        "OBJECT_NAME": "CZ-2C R/B",
        "OBJECT_ID": "2007-010B",
        "EPOCH": "2026-04-25T20:34:12.376416",
        "MEAN_MOTION": 14.2026239,
        "ECCENTRICITY": 0.0059567,
        "INCLINATION": 98.4036,
        "RA_OF_ASC_NODE": 226.784,
        "ARG_OF_PERICENTER": 156.0941,
        "MEAN_ANOMALY": 204.3024,
        "EPHEMERIS_TYPE": 0,
        "CLASSIFICATION_TYPE": "U",
        "NORAD_CAT_ID": 31114,
        "ELEMENT_SET_NO": 999,
        "REV_AT_EPOCH": 98641,
        "BSTAR": 7.0854e-05,
        "MEAN_MOTION_DOT": 1.13e-06,
        "MEAN_MOTION_DDOT": 0
    },
    {
        "OBJECT_NAME": "COSMO-SKYMED 1",
        "OBJECT_ID": "2007-023A",
        "EPOCH": "2026-04-25T19:07:44.702688",
        "MEAN_MOTION": 14.96837701,
        "ECCENTRICITY": 0.000135,
        "INCLINATION": 97.887,
        "RA_OF_ASC_NODE": 307.2173,
        "ARG_OF_PERICENTER": 101.6385,
        "MEAN_ANOMALY": 258.4987,
        "EPHEMERIS_TYPE": 0,
        "CLASSIFICATION_TYPE": "U",
        "NORAD_CAT_ID": 31598,
        "ELEMENT_SET_NO": 999,
        "REV_AT_EPOCH": 2195,
        "BSTAR": 0.00025005,
        "MEAN_MOTION_DOT": 2.805e-05,
        "MEAN_MOTION_DDOT": 0
    },
    {
        "OBJECT_NAME": "COSMOS 2428",
        "OBJECT_ID": "2007-029A",
        "EPOCH": "2026-04-25T16:25:12.496224",
        "MEAN_MOTION": 14.12945333,
        "ECCENTRICITY": 0.0009089,
        "INCLINATION": 70.9391,
        "RA_OF_ASC_NODE": 104.7032,
        "ARG_OF_PERICENTER": 225.1096,
        "MEAN_ANOMALY": 134.9288,
        "EPHEMERIS_TYPE": 0,
        "CLASSIFICATION_TYPE": "U",
        "NORAD_CAT_ID": 31792,
        "ELEMENT_SET_NO": 999,
        "REV_AT_EPOCH": 97073,
        "BSTAR": -7.4667e-05,
        "MEAN_MOTION_DOT": -1.87e-06,
        "MEAN_MOTION_DDOT": 0
    },
    {
        "OBJECT_NAME": "SL-16 R/B",
        "OBJECT_ID": "2007-029B",
        "EPOCH": "2026-04-25T16:07:52.469184",
        "MEAN_MOTION": 14.14844621,
        "ECCENTRICITY": 0.0002508,
        "INCLINATION": 70.9747,
        "RA_OF_ASC_NODE": 73.6206,
        "ARG_OF_PERICENTER": 268.1018,
        "MEAN_ANOMALY": 265.1568,
        "EPHEMERIS_TYPE": 0,
        "CLASSIFICATION_TYPE": "U",
        "NORAD_CAT_ID": 31793,
        "ELEMENT_SET_NO": 999,
        "REV_AT_EPOCH": 97201,
        "BSTAR": 0.00018961,
        "MEAN_MOTION_DOT": 3.18e-06,
        "MEAN_MOTION_DDOT": 0
    },
    {
        "OBJECT_NAME": "KORONAS-FOTON",
        "OBJECT_ID": "2009-003A",
        "EPOCH": "2026-04-25T19:35:50.143776",
        "MEAN_MOTION": 15.44564963,
        "ECCENTRICITY": 0.0009742,
        "INCLINATION": 82.4313,
        "RA_OF_ASC_NODE": 226.8357,
        "ARG_OF_PERICENTER": 351.5029,
        "MEAN_ANOMALY": 8.6052,
        "EPHEMERIS_TYPE": 0,
        "CLASSIFICATION_TYPE": "U",
        "NORAD_CAT_ID": 33504,
        "ELEMENT_SET_NO": 999,
        "REV_AT_EPOCH": 95301,
        "BSTAR": 0.00032633,
        "MEAN_MOTION_DOT": 0.00015226,
        "MEAN_MOTION_DDOT": 0
    },
    {
        "OBJECT_NAME": "CZ-2C R/B",
        "OBJECT_ID": "2011-030B",
        "EPOCH": "2026-04-25T19:53:25.378944",
        "MEAN_MOTION": 14.81355702,
        "ECCENTRICITY": 0.005192,
        "INCLINATION": 97.8615,
        "RA_OF_ASC_NODE": 72.1787,
        "ARG_OF_PERICENTER": 195.409,
        "MEAN_ANOMALY": 224.3893,
        "EPHEMERIS_TYPE": 0,
        "CLASSIFICATION_TYPE": "U",
        "NORAD_CAT_ID": 37731,
        "ELEMENT_SET_NO": 999,
        "REV_AT_EPOCH": 79707,
        "BSTAR": 0.00012791,
        "MEAN_MOTION_DOT": 9.67e-06,
        "MEAN_MOTION_DDOT": 0
    },
    {
        "OBJECT_NAME": "H-2A R/B",
        "OBJECT_ID": "2012-025E",
        "EPOCH": "2026-04-25T20:05:53.785248",
        "MEAN_MOTION": 14.95440198,
        "ECCENTRICITY": 0.0044602,
        "INCLINATION": 98.4796,
        "RA_OF_ASC_NODE": 86.6937,
        "ARG_OF_PERICENTER": 156.9106,
        "MEAN_ANOMALY": 203.4131,
        "EPHEMERIS_TYPE": 0,
        "CLASSIFICATION_TYPE": "U",
        "NORAD_CAT_ID": 38341,
        "ELEMENT_SET_NO": 999,
        "REV_AT_EPOCH": 75526,
        "BSTAR": 0.00017914,
        "MEAN_MOTION_DOT": 1.95e-05,
        "MEAN_MOTION_DDOT": 0
    }
]