RESURS-DK 1
1 29228U 06021A   26115.74363345  .00002097  00000+0  12463-3 0  9998
2 29228  69.9299 115.2839 0003266 341.1886  18.9158 15.12985142 94649
COSMO-SKYMED 1
1 31598U 07023A   26115.79704517  .00002805  00000+0  25005-3 0  9992
2 31598  97.8870 307.2173 0001350 101.6385 258.4987 14.96837701 21959
COSMOS 2428
1 31792U 07029A   26115.68417241 -.00000187  00000+0 -74667-4 0  9999
2 31792  70.9391 104.7032 0009089 225.1096 134.9288 14.12945333970737
ARIANE 5 R/B
1 28499U 04049H   26115.72202919  .00000912  00000+0  10676-3 0  9990
2 28499  98.2689 285.9609 0083678 197.8241 162.0034 14.85353024152772
CZ-2D R/B
1 28738U 05024B   26115.59347106  .00044567  00000+0  46585-3 0  9995
2 28738  97.3546 132.6048 0004730 170.8226 189.3120 15.64338500147100
ALOS (DAICHI)
1 28931U 06002A   26115.81405330  .00000975  00000+0  17104-3 0  9996
2 28931  98.1286  71.5615 0001924 104.1829 255.9590 14.69937987 80405
H-2A R/B
1 28932U 06002B   26115.37737618  .00009241  00000+0  45024-3 0  9992
2 28932  98.2498 266.4786 0052443  83.1980 277.5214 15.17374458101513
CZ-4B R/B
1 29507U 06046C   26115.70142720  .00004226  00000+0  21202-3 0  9990
2 29507  97.5508 160.4747 0034621 104.2275 256.2807 15.17347593 67171
CZ-2C R/B
1 31114U 07010B   26115.85708769  .00000113  00000+0  70854-4 0  9995
2 31114  98.4036 226.7840 0059567 156.0941 204.3024 14.20262390986411
SL-16 R/B
1 31793U 07029B   26115.67213506  .00000318  00000+0  18961-3 0  9995
2 31793  70.9747  73.6206 0002508 268.1018 265.1568 14.14844621972011
KORONAS-FOTON
1 33504U 09003A   26115.81655259  .00015226  00000+0  32633-3 0  9998
2 33504  82.4313 226.8357 0009742 351.5029   8.6052 15.44564963953014
CZ-2C R/B
1 37731U 11030B   26115.82876596  .00000967  00000+0  12791-3 0  9996
2 37731  97.8615  72.1787 0051920 195.4090 224.3893 14.81355702797073
H-2A R/B
1 38341U 12025E   26115.83742807  .00001950  00000+0  17914-3 0  9992
2 38341  98.4796  86.6937 0044602 156.9106 203.4131 14.95440198755261
